{
  "norad_id": 67631,
  "name": "STARLINK-36527",
  "history": [
    {
      "epoch": "2026-03-28T13:36:08.527104Z",
      "apogee_km": 481.0223664583227,
      "perigee_km": 480.0114008758701,
      "latitude_deg": -7.827906191306548e-06,
      "longitude_deg": 3.7491968266167444,
      "height_km": 480.19458066942394,
      "semi_major_axis_km": 6858.653883667096,
      "eccentricity": 7.37e-05,
      "inclination_deg": 43.0033,
      "raan_deg": 33.7701,
      "arg_perigee_deg": 281.2612,
      "mean_anomaly_deg": 78.8157,
      "mean_motion_rev_day": 15.28426051
    },
    {
      "epoch": "2026-03-29T03:43:04.395072Z",
      "apogee_km": 481.49317784339746,
      "perigee_km": 479.3176481899891,
      "latitude_deg": -2.703835250647575e-05,
      "longitude_deg": 148.11218928929392,
      "height_km": 480.3048727336688,
      "semi_major_axis_km": 6858.542413016693,
      "eccentricity": 0.0001586,
      "inclination_deg": 43.0021,
      "raan_deg": 30.4456,
      "arg_perigee_deg": 263.5348,
      "mean_anomaly_deg": 96.5323,
      "mean_motion_rev_day": 15.28463313
    }
  ]
}